ARIANE 40 R/B           
1 20443U 90005H   26063.18474325  .00000401  00000+0  14118-3 0  9990
2 20443  98.3095 124.0100 0009518 215.6942 144.3611 14.39866455892010
DELTA 2 R/B(1)          
1 20453U 90008B   26063.49710610  .00090827  00000+0  10876-2 0  9995
2 20453  35.6042 208.9123 0086560 210.6924 148.8729 15.55192361925328
COSMOS 2058             
1 20465U 90010A   26063.41753029  .00006484  00000+0  38343-3 0  9990
2 20465  82.4667  52.6218 0009768   0.8805 359.2440 15.11265820941447
SL-14 R/B               
1 20466U 90010B   26063.08882360  .00000557  00000+0  64601-4 0  9997
2 20466  82.4992 272.6512 0018891 321.9134  38.0744 14.83563470927655
SL-14 R/B               
1 20511U 90018B   26063.50634765  .00000775  00000+0  94251-4 0  9993
2 20511  82.5193 227.9347 0017606 107.8051 252.5086 14.82138670921814
HST                     
1 20580U 90037B   26063.13533952  .00010319  00000+0  34382-3 0  9998
2 20580  28.4703  77.8870 0001724  70.3509 289.7272 15.29378725772468
SL-16 R/B               
1 20625U 90046B   26063.11254067 -.00000180  00000+0 -68151-4 0  9992
2 20625  71.0000 309.6278 0016154 307.0897  52.8748 14.15014486847604
COSMOS 2084             
1 20663U 90055A   26063.20949153  .00004465  00000+0  32073-3 0  9992
2 20663  62.7926 354.2678 0017956 188.7602 171.3188 15.05611914935498
SL-6 R/B(2)             
1 20666U 90055D   26063.58368874  .00002776  00000+0  21563-3 0  9996
2 20666  62.7817 271.2152 0023967 345.7643  14.2778 15.03565724937424
SL-8 R/B                
1 20775U 90078B   26062.99793982  .00020766  00000+0  61063-3 0  9996
2 20775  82.8989 256.4302 0363616  33.1204 329.2215 14.88836115808451
SL-8 R/B                
1 21088U 91006B   26063.39501354  .00000073  00000+0  57987-4 0  9991
2 21088  82.9464 173.9817 0023349  52.6107  11.0797 13.77493534763346
OKEAN-3                 
1 21397U 91039A   26063.22629433  .00004808  00000+0  33850-3 0  9993
2 21397  82.5198 342.1351 0014281 358.1735   1.9436 15.04758384864213
COSMOS 2151             
1 21422U 91042A   26063.54712018  .00002928  00000+0  23248-3 0  9994
2 21422  82.4928  88.6381 0014096  78.9728 281.3081 15.00081531862420
SL-14 R/B               
1 21423U 91042B   26063.49071818  .00000710  00000+0  86799-4 0  9993
2 21423  82.4912 225.0577 0015620 257.1611 102.7858 14.81823576852309
ERS-1                   
1 21574U 91050A   26063.48399711  .00000476  00000+0  16692-3 0  9996
2 21574  98.7885  81.5877 0031341 216.0960 143.8111 14.39444979814981
ARIANE 40 R/B           
1 21610U 91050F   26063.13125813  .00000424  00000+0  13953-3 0  9999
2 21610  98.2024 115.5761 0004362  93.2924 266.8765 14.42889010818191
INTERCOSMOS 25          
1 21819U 91086A   26063.12651537  .00001733  00000+0  33299-3 0  9994
2 21819  82.6063 313.3703 1487059 128.9167 245.4246 12.11982538496013
SL-8 R/B                
1 21876U 92008B   26063.13439132  .00000006  00000+0 -10063-4 0  9996
2 21876  82.9227 271.9119 0035269 148.4698 331.0453 13.75969799708651
SL-8 R/B                
1 21938U 92020B   26063.38363259  .00000105  00000+0  92841-4 0  9995
2 21938  82.9341 157.7001 0027874 314.2233 113.7047 13.75548821700407
USA 81                  
1 21949U 92023A   26063.27975751  .00000261  00000+0  89261-4 0  9999
2 21949  85.0095 134.5619 0002602  81.8580 278.2908 14.32366052 94015
COSMOS 2219             
1 22219U 92076A   26063.35712106  .00000306  00000+0  18506-3 0  9993
2 22219  71.0621  29.2143 0019292 214.1799 145.8083 14.14089889717626
SL-16 R/B               
1 22220U 92076B   26063.47284111  .00000019  00000+0  33151-4 0  9993
2 22220  71.0000 199.3614 0010578 106.0891 318.3363 14.16860223721096
COSMOS 2221             
1 22236U 92080A   26063.08646264  .00002785  00000+0  24463-3 0  9990
2 22236  82.5016 284.4495 0013541 206.5778 153.4751 14.96175748779959
SL-16 R/B               
1 22285U 92093B   26063.29790013 -.00000143  00000+0 -48895-4 0  9997
2 22285  71.0239  15.5835 0006316 299.4224  60.6268 14.15449479712396
COSMOS 2228             
1 22286U 92094A   26063.57437234  .00003487  00000+0  29883-3 0  9990
2 22286  82.5146 242.2092 0017114 322.9580  37.0460 14.97160171775299
SL-16 R/B               
1 22566U 93016B   26063.47914963  .00000314  00000+0  18542-3 0  9990
2 22566  71.0060 226.1247 0011423 321.4318  38.5988 14.15305908701436
COSMOS 2242             
1 22626U 93024A   26063.08631526  .00002348  00000+0  20393-3 0  9990
2 22626  82.5154 272.0778 0015557 328.9179  31.1121 14.96522155779552
SL-16 R/B               
1 22803U 93059B   26063.32447448  .00000001  00000+0  24136-4 0  9994
2 22803  70.9921  22.4393 0018779 224.1741 135.7884 14.17232330678778
ARIANE 40 R/B           
1 22830U 93061H   26063.18195960  .00000312  00000+0  13004-3 0  9996
2 22830  98.4928 132.1781 0009655 303.2942  56.7316 14.32857838693317
COSMOS 2278             
1 23087U 94023A   26063.50561038  .00000308  00000+0  18561-3 0  9997
2 23087  71.0543 185.9417 0007692  23.7678 336.3799 14.14376329644075
SL-16 R/B               
1 23088U 94023B   26063.48371222 -.00000117  00000+0 -35787-4 0  9999
2 23088  70.9987  81.8212 0005641 290.7503  69.3015 14.15013380645350
SL-16 R/B               
1 23343U 94074B   26063.52970501  .00000689  00000+0  99054-4 0  9998
2 23343  97.7116  94.5563 0005440 230.3684 254.1669 14.79401252686489
SL-16 R/B               
1 23405U 94077B   26063.25536438 -.00000230  00000+0 -93246-4 0  9998
2 23405  70.9851   3.9204 0003394 219.9110 140.1763 14.15562115615461
ARIANE 40+ R/B          
1 23561U 95021B   26063.18078909  .00000433  00000+0  15201-3 0  9994
2 23561  98.4508 134.7378 0007401 151.3190 234.2081 14.39768032618455
SL-16 R/B               
1 23705U 95058B   26063.47409966  .00000039  00000+0  44263-4 0  9990
2 23705  71.0211 191.2039 0010999 135.0151 225.1865 14.15492887567118
SL-16 R/B               
1 24298U 96051B   26063.50030014  .00000105  00000+0  83516-4 0  9998
2 24298  70.7597 186.2217 0015547 155.7703 204.4151 14.12414119520911
ORBVIEW 2 (SEASTAR)     
1 24883U 97037A   26063.39933558  .00000508  00000+0  19297-3 0  9996
2 24883  98.8556 227.5711 0003172  82.5160 277.6384 14.35490740507712
SL-16 R/B               
1 25400U 98043G   26063.46934631  .00000096  00000+0  58924-4 0  9994
2 25400  98.8247  16.7961 0010459  34.7587 325.4274 14.26048412438244
SL-16 R/B               
1 25407U 98045B   26063.48759336 -.00000174  00000+0 -63820-4 0  9992
2 25407  71.0113 192.5126 0006434  15.8870 344.2454 14.16189328426365
ISS (ZARYA)             
1 25544U 98067A   26063.54402654  .00009464  00000+0  18311-3 0  9996
2 25544  51.6315  97.7962 0008198 156.3781 203.7585 15.48441338555534
CZ-4B R/B               
1 25732U 99025C   26063.60401388  .00000086  00000+0  62565-4 0  9992
2 25732  98.6637 108.0059 0037032   1.3021 151.9685 14.18264240387448
OKEAN-O                 
1 25860U 99039A   26063.17689204  .00001003  00000+0  13839-3 0  9995
2 25860  97.9453 123.1241 0001428  70.7706 289.3660 14.80325784433574
SL-16 R/B               
1 25861U 99039B   26063.16195114  .00000848  00000+0  11439-3 0  9997
2 25861  97.9977 122.2666 0013446 275.9477  84.0203 14.81723034436043
DELTA 2 R/B             
1 25876U 99041E   26063.13230769  .00001895  00000+0  34235-3 0  9991
2 25876  51.7645 323.4770 0502347 332.0291  25.4449 14.11818994362246
HELIOS 1B               
1 25977U 99064A   26063.33309934  .00003224  00000+0  36052-3 0  9998
2 25977  98.1701 325.4190 0002528  82.3724 277.7778 14.87673008684462
TERRA                   
1 25994U 99068A   26063.59679119  .00000645  00000+0  14056-3 0  9998
2 25994  97.9603 117.2259 0002377 163.6152 352.3892 14.61008698394332
SL-16 R/B               
1 26070U 00006B   26063.50166887  .00000193  00000+0  12216-3 0  9996
2 26070  71.0013 108.7468 0017152 197.3762 162.6776 14.15824965347828
TITAN 4B R/B            
1 26474U 00047B   26063.59458782  .00005982  00000+0  37412-3 0  9992
2 26474  67.9888  54.8363 0038114  41.4246 318.9782 15.09502793392146
ENVISAT                 
1 27386U 02009A   26063.47616368  .00000208  00000+0  81123-4 0  9993
2 27386  98.3720  17.1979 0001333  84.4592  25.6450 14.39034830258421
IDEFIX & ARIANE 42P R/B 
1 27422U 02021B   26063.39169823  .00000431  00000+0  18028-3 0  9999
2 27422  98.5866   2.0614 0011272 198.2764 161.8015 14.31022003243269
AQUA                    
1 27424U 02022A   26063.61871009  .00001466  00000+0  30251-3 0  9994
2 27424  98.4166  30.8916 0000640  60.9696 353.8727 14.61962533267996
CZ-4B R/B               
1 27432U 02024C   26063.57729847  .00000074  00000+0  60850-4 0  9995
2 27432  98.8850 117.0095 0050717  38.6002 133.7598 14.14546626228513
MIDORI II (ADEOS-II)    
1 27597U 02056A   26063.48333721  .00000458  00000+0  19793-3 0  9999
2 27597  98.7761  21.9252 0001781  50.0959 310.0379 14.29280605209557
H-2A R/B                
1 27601U 02056E   26063.48308938  .00000403  00000+0  15550-3 0  9994
2 27601  98.3194  24.0472 0070178 176.1427 295.4588 14.33756996213361
CZ-4B R/B               
1 28059U 03049C   26063.50099525  .00000621  00000+0  15405-3 0  9998
2 28059  98.6874  58.2023 0047075 247.0745 112.5479 14.55014781185841
CZ-2C R/B               
1 28222U 04012C   26063.17120259  .00071201  00000+0  75524-3 0  9993
2 28222  97.7244 127.9435 0013211 331.6844  28.3694 15.63762571203414
SL-16 R/B               
1 28353U 04021B   26063.50713661 -.00000154  00000+0 -55300-4 0  9992
2 28353  70.9991 243.3689 0003757  19.6966 340.4301 14.14599523122106
CZ-4B R/B               
1 28415U 04035C   26063.08471853  .00011746  00000+0  41410-3 0  9996
2 28415  97.3503  97.3943 0031572 351.8851   8.1874 15.28943125179053
CZ-2C R/B               
1 28480U 04046B   26063.36688739  .00000173  00000+0  79149-4 0  9997
2 28480  98.1987 338.6819 0139558 170.1424 190.2547 14.26990151107749
